OBJECT_NAME,OBJECT_ID,EPOCH,MEAN_MOTION,ECCENTRICITY,INCLINATION,RA_OF_ASC_NODE,ARG_OF_PERICENTER,MEAN_ANOMALY,EPHEMERIS_TYPE,CLASSIFICATION_TYPE,NORAD_CAT_ID,ELEMENT_SET_NO,REV_AT_EPOCH,BSTAR,MEAN_MOTION_DOT,MEAN_MOTION_DDOT
STARLINK-2071,2021-005N,2026-07-22T02:10:55.527744,15.31699043,.00012375,53.1595,132.0661,73.9434,286.1704,0,U,47361,999,30396,-.22594721E-4,-.1066E-4,0
STARLINK-2076,2021-005P,2026-07-22T02:04:36.298272,15.38959272,.00062223,53.1564,154.8345,53.3428,306.8148,0,U,47362,999,30365,.99335562E-3,.38702E-3,0
STARLINK-2081,2021-005T,2026-07-22T06:34:12.606528,15.31701611,.00013688,53.1602,156.3703,97.0345,263.0813,0,U,47366,999,30364,.12858035E-4,.34E-6,0
STARLINK-2082,2021-005U,2026-07-22T13:37:02.851104,15.31712166,.0001272,53.1589,155.0812,89.9322,270.1825,0,U,47367,999,30369,.10609594E-3,.293E-4,0
STARLINK-2084,2021-005V,2026-07-22T03:40:10.731072,15.31706102,.00012197,53.1585,156.8507,81.8108,278.3032,0,U,47368,999,30363,.95718248E-4,.2607E-4,0
STARLINK-2088,2021-005Y,2026-07-22T03:47:38.030784,15.31704729,.00013139,53.1587,160.6678,82.7152,277.3999,0,U,47371,999,30357,.76144619E-4,.1999E-4,0
STARLINK-2092,2021-005AA,2026-07-22T03:53:07.247616,15.31703135,.0001293,53.1587,156.7937,91.2099,268.9051,0,U,47373,999,30363,.13465669E-3,.3816E-4,0
STARLINK-2094,2021-005AC,2026-07-22T04:33:23.541984,15.31694419,.00014437,53.1578,156.6920,86.1659,273.9508,0,U,47375,999,30363,.66462297E-4,.1697E-4,0
STARLINK-2096,2021-005AD,2026-07-22T04:40:05.516256,15.31713953,.00013237,53.1599,156.6810,76.1682,283.9467,0,U,47376,999,30363,.13957362E-3,.397E-4,0
STARLINK-2097,2021-005AE,2026-07-22T03:54:48.808224,15.31701405,.0001616,53.1582,160.5782,133.8037,226.3098,0,U,47377,999,30357,.2378767E-4,.373E-5,0
STARLINK-2098,2021-005AF,2026-07-22T10:46:04.757088,15.31695311,.00012095,53.1593,107.1377,92.5121,267.6019,0,U,47378,999,30436,.85265828E-4,.2281E-4,0
STARLINK-2099,2021-005AG,2026-07-22T00:01:38.782848,15.31700156,.0001275,53.1592,108.5909,88.3568,271.7579,0,U,47379,999,30430,.25136583E-4,.415E-5,0
STARLINK-2100,2021-005AH,2026-07-22T16:00:01.999584,15.96638101,.0003401,53.0463,90.0306,154.7019,55.0821,0,U,47380,999,603,.11367942E-2,.491542E-2,.11099218E-3
STARLINK-2101,2021-005AJ,2026-07-22T12:41:47.678784,15.31710033,.00013395,53.1608,130.0093,92.2364,267.8791,0,U,47381,999,30404,.45550723E-4,.1049E-4,0
STARLINK-2102,2021-005AK,2026-07-22T01:26:37.327200,15.31706146,.00011474,53.1594,121.3145,93.8779,266.2353,0,U,47382,999,30412,.59701319E-4,.1488E-4,0
STARLINK-2103,2021-005AL,2026-07-22T00:34:28.670880,15.37801619,.00052106,53.1557,107.5257,80.9044,279.2550,0,U,47383,999,30432,.10816812E-2,.40609E-3,0
STARLINK-2104,2021-005AM,2026-07-22T02:57:53.426592,15.31725915,.00019219,53.1618,131.9100,67.7127,292.4078,0,U,47384,999,30397,.18448851E-3,.5368E-4,0
STARLINK-2105,2021-005AN,2026-07-22T12:07:12.785376,15.31712320,.0001402,53.1580,129.7934,83.6216,276.4945,0,U,47385,999,30403,.41676702E-4,.929E-5,0
STARLINK-2106,2021-005AP,2026-07-22T01:03:49.227264,15.31705487,.00015802,53.1634,132.2924,99.2530,260.8650,0,U,47386,999,30396,.4269705E-4,.96E-5,0
STARLINK-2109,2021-005AR,2026-07-22T14:05:04.077600,15.31711151,.00012886,53.1589,158.6047,94.2762,265.8387,0,U,47388,999,30363,.95559165E-4,.2602E-4,0
STARLINK-2110,2021-005AS,2026-07-22T12:05:22.394688,15.33916804,.00013675,53.1546,129.1722,92.1417,267.9742,0,U,47389,999,30405,.10084317E-2,.33328E-3,0
STARLINK-2111,2021-005AT,2026-07-22T08:49:38.467776,15.31709645,.00013097,53.1589,159.6770,86.8656,273.2495,0,U,47390,999,30360,.33181701E-4,.665E-5,0
STARLINK-2112,2021-005AU,2026-07-22T02:49:19.982496,15.13346305,.00029612,53.0656,144.5553,42.4455,317.6766,0,U,47391,999,30377,.90344853E-3,.16028E-3,0
STARLINK-2113,2021-005AV,2026-07-22T12:50:43.924704,16.13845405,.00043429,53.0332,62.4121,261.4634,98.5909,0,U,47392,999,30495,.91542302E-3,.1135481E-1,.86716932E-3
STARLINK-2119,2021-005BA,2026-07-22T10:20:54.784032,15.37151265,.00061271,53.1558,154.3705,65.4013,294.7628,0,U,47397,999,30369,.93764568E-3,.34388E-3,0
STARLINK-2121,2021-005BC,2026-07-22T12:47:25.063872,15.31698116,.00014184,53.1581,129.2661,107.8453,252.2704,0,U,47399,999,30405,.15091919E-3,.432E-4,0
STARLINK-2122,2021-005BD,2026-07-22T11:06:04.028832,15.31708658,.00011908,53.1592,106.4285,103.6353,256.4781,0,U,47400,999,30437,.60193829E-4,.1504E-4,0
STARLINK-2123,2021-005BE,2026-07-22T02:56:52.176768,15.31719915,.00014174,53.1593,131.4417,69.1152,291.0001,0,U,47401,999,30398,.13816636E-3,.3927E-4,0
STARLINK-2130,2021-005BJ,2026-07-22T14:10:32.961792,15.31711011,.00014288,53.1596,154.7314,91.2796,268.8369,0,U,47405,999,30369,.79120174E-4,.2091E-4,0
STARLINK-2134,2021-005BL,2026-07-22T11:27:45.991296,15.31716080,.00012892,53.1588,131.6292,94.3274,265.7874,0,U,47407,999,30400,.2973815E-3,.8879E-4,0
