{"epoch":1784762836,"count":18316,"objects":[{"id":"47361","name":"STARLINK-2071","type":"PAYLOAD","l1":"1 47361U 21005N   26203.09092046 -.00001066  00000-0 -22595-4 0  9994","l2":"2 47361  53.1595 132.0661 0001238  73.9434 286.1704 15.31699043303964"},{"id":"47362","name":"STARLINK-2076","type":"PAYLOAD","l1":"1 47362U 21005P   26203.08653123  .00038702  00000-0  99336-3 0  9994","l2":"2 47362  53.1564 154.8345 0006222  53.3428 306.8148 15.38959272303653"},{"id":"47366","name":"STARLINK-2081","type":"PAYLOAD","l1":"1 47366U 21005T   26203.27375702  .00000034  00000-0  12858-4 0  9995","l2":"2 47366  53.1602 156.3703 0001369  97.0345 263.0813 15.31701611303642"},{"id":"47367","name":"STARLINK-2082","type":"PAYLOAD","l1":"1 47367U 21005U   26203.56739411  .00002930  00000-0  10610-3 0  9999","l2":"2 47367  53.1589 155.0812 0001272  89.9322 270.1825 15.31712166303696"},{"id":"47368","name":"STARLINK-2084","type":"PAYLOAD","l1":"1 47368U 21005V   26203.15290198  .00002607  00000-0  95718-4 0  9993","l2":"2 47368  53.1585 156.8507 0001220  81.8108 278.3032 15.31706102303636"},{"id":"47371","name":"STARLINK-2088","type":"PAYLOAD","l1":"1 47371U 21005Y   26203.15807906  .00001999  00000-0  76145-4 0  9994","l2":"2 47371  53.1587 160.6678 0001314  82.7152 277.3999 15.31704729303574"},{"id":"47373","name":"STARLINK-2092","type":"PAYLOAD","l1":"1 47373U 21005AA  26203.16188944  .00003816  00000-0  13466-3 0  9997","l2":"2 47373  53.1587 156.7937 0001293  91.2099 268.9051 15.31703135303633"},{"id":"47375","name":"STARLINK-2094","type":"PAYLOAD","l1":"1 47375U 21005AC  26203.18985581  .00001697  00000-0  66462-4 0  9993","l2":"2 47375  53.1578 156.6920 0001444  86.1659 273.9508 15.31694419303636"},{"id":"47376","name":"STARLINK-2096","type":"PAYLOAD","l1":"1 47376U 21005AD  26203.19450829  .00003970  00000-0  13957-3 0  9993","l2":"2 47376  53.1599 156.6810 0001324  76.1682 283.9467 15.31713953303630"},{"id":"47377","name":"STARLINK-2097","type":"PAYLOAD","l1":"1 47377U 21005AE  26203.16306491  .00000373  00000-0  23788-4 0  9994","l2":"2 47377  53.1582 160.5782 0001616 133.8037 226.3098 15.31701405303577"},{"id":"47378","name":"STARLINK-2098","type":"PAYLOAD","l1":"1 47378U 21005AF  26203.44866617  .00002281  00000-0  85266-4 0  9996","l2":"2 47378  53.1593 107.1377 0001210  92.5121 267.6019 15.31695311304369"},{"id":"47379","name":"STARLINK-2099","type":"PAYLOAD","l1":"1 47379U 21005AG  26203.00114332  .00000415  00000-0  25137-4 0  9997","l2":"2 47379  53.1592 108.5909 0001275  88.3568 271.7579 15.31700156304309"},{"id":"47380","name":"STARLINK-2100","type":"PAYLOAD","l1":"1 47380U 21005AH  26203.66668981  .00491542  11099-3  11368-2 0  9992","l2":"2 47380  53.0463  90.0306 0003401 154.7019  55.0821 15.96638101  6038"},{"id":"47381","name":"STARLINK-2101","type":"PAYLOAD","l1":"1 47381U 21005AJ  26203.52902406  .00001049  00000-0  45551-4 0  9990","l2":"2 47381  53.1608 130.0093 0001340  92.2364 267.8791 15.31710033304043"},{"id":"47382","name":"STARLINK-2102","type":"PAYLOAD","l1":"1 47382U 21005AK  26203.06015425  .00001488  00000-0  59701-4 0  9995","l2":"2 47382  53.1594 121.3145 0001147  93.8779 266.2353 15.31706146304127"},{"id":"47383","name":"STARLINK-2103","type":"PAYLOAD","l1":"1 47383U 21005AL  26203.02394295  .00040609  00000-0  10817-2 0  9998","l2":"2 47383  53.1557 107.5257 0005211  80.9044 279.2550 15.37801619304327"},{"id":"47384","name":"STARLINK-2104","type":"PAYLOAD","l1":"1 47384U 21005AM  26203.12353503  .00005368  00000-0  18449-3 0  9990","l2":"2 47384  53.1618 131.9100 0001922  67.7127 292.4078 15.31725915303974"},{"id":"47385","name":"STARLINK-2105","type":"PAYLOAD","l1":"1 47385U 21005AN  26203.50500909  .00000929  00000-0  41677-4 0  9995","l2":"2 47385  53.1580 129.7934 0001402  83.6216 276.4945 15.31712320304031"},{"id":"47386","name":"STARLINK-2106","type":"PAYLOAD","l1":"1 47386U 21005AP  26203.04431976  .00000960  00000-0  42697-4 0  9990","l2":"2 47386  53.1634 132.2924 0001580  99.2530 260.8650 15.31705487303966"},{"id":"47388","name":"STARLINK-2109","type":"PAYLOAD","l1":"1 47388U 21005AR  26203.58685275  .00002602  00000-0  95559-4 0  9994","l2":"2 47388  53.1589 158.6047 0001289  94.2762 265.8387 15.31711151303634"},{"id":"47389","name":"STARLINK-2110","type":"PAYLOAD","l1":"1 47389U 21005AS  26203.50373142  .00033328  00000-0  10084-2 0  9991","l2":"2 47389  53.1546 129.1722 0001368  92.1417 267.9742 15.33916804304052"},{"id":"47390","name":"STARLINK-2111","type":"PAYLOAD","l1":"1 47390U 21005AT  26203.36780634  .00000665  00000-0  33182-4 0  9999","l2":"2 47390  53.1589 159.6770 0001310  86.8656 273.2495 15.31709645303600"},{"id":"47391","name":"STARLINK-2112","type":"PAYLOAD","l1":"1 47391U 21005AU  26203.11759239  .00016028  00000-0  90345-3 0  9993","l2":"2 47391  53.0656 144.5553 0002961  42.4455 317.6766 15.13346305303777"},{"id":"47392","name":"STARLINK-2113","type":"PAYLOAD","l1":"1 47392U 21005AV  26203.53523061  .01135481  86717-3  91542-3 0  9990","l2":"2 47392  53.0332  62.4121 0004343 261.4634  98.5909 16.13845405304957"},{"id":"47397","name":"STARLINK-2119","type":"PAYLOAD","l1":"1 47397U 21005BA  26203.43118963  .00034388  00000-0  93765-3 0  9995","l2":"2 47397  53.1558 154.3705 0006127  65.4013 294.7628 15.37151265303694"},{"id":"47399","name":"STARLINK-2121","type":"PAYLOAD","l1":"1 47399U 21005BC  26203.53292898  .00004320  00000-0  15092-3 0  9998","l2":"2 47399  53.1581 129.2661 0001418 107.8453 252.2704 15.31698116304051"},{"id":"47400","name":"STARLINK-2122","type":"PAYLOAD","l1":"1 47400U 21005BD  26203.46254663  .00001504  00000-0  60194-4 0  9996","l2":"2 47400  53.1592 106.4285 0001191 103.6353 256.4781 15.31708658304375"},{"id":"47401","name":"STARLINK-2123","type":"PAYLOAD","l1":"1 47401U 21005BE  26203.12282612  .00003927  00000-0  13817-3 0  9995","l2":"2 47401  53.1593 131.4417 0001417  69.1152 291.0001 15.31719915303980"},{"id":"47405","name":"STARLINK-2130","type":"PAYLOAD","l1":"1 47405U 21005BJ  26203.59065928  .00002091  00000-0  79120-4 0  9990","l2":"2 47405  53.1596 154.7314 0001429  91.2796 268.8369 15.31711011303690"},{"id":"47407","name":"STARLINK-2134","type":"PAYLOAD","l1":"1 47407U 21005BL  26203.47761564  .00008879  00000-0  29738-3 0  9997","l2":"2 47407  53.1588 131.6292 0001289  94.3274 265.7874 15.31716080304005"}]}